{
  "type": "FeatureCollection",
  "features": [
    {
      "type": "Feature",
      "properties": {
        "norad_id": 30389,
        "name": "FENGYUN 1C DEB",
        "group": "fengyun-1c-debris",
        "lat": -80.17485369384518,
        "lon": -160.38916259014798,
        "alt_km": 750.641981187543,
        "timestamp": "2025-12-27T17:24:57.681408+00:00",
        "meta_object_name": "FENGYUN 1C DEB",
        "meta_object_id": "1999-025ADC",
        "meta_epoch": "2025-12-27T04:50:43.245024",
        "meta_mean_motion": 14.44279362,
        "meta_eccentricity": 0.00146824,
        "meta_inclination": 98.8367,
        "meta_ra_of_asc_node": 82.9994,
        "meta_arg_of_pericenter": 182.8749,
        "meta_mean_anomaly": 240.8663,
        "meta_ephemeris_type": 0,
        "meta_classification_type": "U",
        "meta_norad_cat_id": 30389,
        "meta_element_set_no": 999,
        "meta_rev_at_epoch": 97995,
        "meta_bstar": 0.0028032861,
        "meta_mean_motion_dot": 9.615e-05,
        "meta_mean_motion_ddot": 0,
        "tle_line1": "1 30389U 99025ADC 25361.20188941  .00009615  00000+0  28033-2 0  9996",
        "tle_line2": "2 30389  98.8367  82.9994 0014682 182.8749 240.8663 14.44279362979957"
      },
      "geometry": {
        "type": "Point",
        "coordinates": [
          -160.38916259014798,
          -80.17485369384518
        ]
      }
    },
    {
      "type": "Feature",
      "properties": {
        "norad_id": 30390,
        "name": "FENGYUN 1C DEB",
        "group": "fengyun-1c-debris",
        "lat": 51.76316178056599,
        "lon": 73.76136829261185,
        "alt_km": 769.5920581136243,
        "timestamp": "2025-12-27T17:24:57.681418+00:00",
        "meta_object_name": "FENGYUN 1C DEB",
        "meta_object_id": "1999-025ADD",
        "meta_epoch": "2025-12-27T05:45:07.144128",
        "meta_mean_motion": 14.29856667,
        "meta_eccentricity": 0.0067545,
        "meta_inclination": 98.8219,
        "meta_ra_of_asc_node": 84.6359,
        "meta_arg_of_pericenter": 122.9796,
        "meta_mean_anomaly": 310.1789,
        "meta_ephemeris_type": 0,
        "meta_classification_type": "U",
        "meta_norad_cat_id": 30390,
        "meta_element_set_no": 999,
        "meta_rev_at_epoch": 97591,
        "meta_bstar": 0.0018061,
        "meta_mean_motion_dot": 4.72e-05,
        "meta_mean_motion_ddot": 0,
        "tle_line1": "1 30390U 99025ADD 25361.23966602  .00004720  00000+0  18061-2 0  9991",
        "tle_line2": "2 30390  98.8219  84.6359 0067545 122.9796 310.1789 14.29856667975916"
      },
      "geometry": {
        "type": "Point",
        "coordinates": [
          73.76136829261185,
          51.76316178056599
        ]
      }
    },
    {
      "type": "Feature",
      "properties": {
        "norad_id": 30391,
        "name": "FENGYUN 1C DEB",
        "group": "fengyun-1c-debris",
        "lat": -40.11206653895257,
        "lon": 55.00241590055891,
        "alt_km": 853.2395584342667,
        "timestamp": "2025-12-27T17:24:57.681428+00:00",
        "meta_object_name": "FENGYUN 1C DEB",
        "meta_object_id": "1999-025ADE",
        "meta_epoch": "2025-12-27T02:29:11.175648",
        "meta_mean_motion": 14.16301797,
        "meta_eccentricity": 0.00721628,
        "meta_inclination": 98.7795,
        "meta_ra_of_asc_node": 46.9085,
        "meta_arg_of_pericenter": 220.938,
        "meta_mean_anomaly": 167.7091,
        "meta_ephemeris_type": 0,
        "meta_classification_type": "U",
        "meta_norad_cat_id": 30391,
        "meta_element_set_no": 999,
        "meta_rev_at_epoch": 97082,
        "meta_bstar": 0.0012462501,
        "meta_mean_motion_dot": 2.492e-05,
        "meta_mean_motion_ddot": 0,
        "tle_line1": "1 30391U 99025ADE 25361.10360157  .00002492  00000+0  12463-2 0  9995",
        "tle_line2": "2 30391  98.7795  46.9085 0072162 220.9380 167.7091 14.16301797970823"
      },
      "geometry": {
        "type": "Point",
        "coordinates": [
          55.00241590055891,
          -40.11206653895257
        ]
      }
    },
    {
      "type": "Feature",
      "properties": {
        "norad_id": 30392,
        "name": "FENGYUN 1C DEB",
        "group": "fengyun-1c-debris",
        "lat": -12.83938435199643,
        "lon": -162.11500877738908,
        "alt_km": 939.2912730600838,
        "timestamp": "2025-12-27T17:24:57.681442+00:00",
        "meta_object_name": "FENGYUN 1C DEB",
        "meta_object_id": "1999-025ADF",
        "meta_epoch": "2025-12-27T08:01:38.132832",
        "meta_mean_motion": 14.07488849,
        "meta_eccentricity": 0.0180372,
        "meta_inclination": 98.785,
        "meta_ra_of_asc_node": 19.5242,
        "meta_arg_of_pericenter": 315.6503,
        "meta_mean_anomaly": 57.9143,
        "meta_ephemeris_type": 0,
        "meta_classification_type": "U",
        "meta_norad_cat_id": 30392,
        "meta_element_set_no": 999,
        "meta_rev_at_epoch": 96876,
        "meta_bstar": 0.00074931,
        "meta_mean_motion_dot": 1.42e-05,
        "meta_mean_motion_ddot": 0,
        "tle_line1": "1 30392U 99025ADF 25361.33446913  .00001420  00000+0  74931-3 0  9995",
        "tle_line2": "2 30392  98.7850  19.5242 0180372 315.6503  57.9143 14.07488849968761"
      },
      "geometry": {
        "type": "Point",
        "coordinates": [
          -162.11500877738908,
          -12.83938435199643
        ]
      }
    },
    {
      "type": "Feature",
      "properties": {
        "norad_id": 30393,
        "name": "FENGYUN 1C DEB",
        "group": "fengyun-1c-debris",
        "lat": -10.755844617779921,
        "lon": -122.24659300565536,
        "alt_km": 856.1712223409149,
        "timestamp": "2025-12-27T17:24:57.681453+00:00",
        "meta_object_name": "FENGYUN 1C DEB",
        "meta_object_id": "1999-025ADG",
        "meta_epoch": "2025-12-27T02:54:46.130400",
        "meta_mean_motion": 13.98993483,
        "meta_eccentricity": 0.00702674,
        "meta_inclination": 99.1635,
        "meta_ra_of_asc_node": 58.9064,
        "meta_arg_of_pericenter": 220.322,
        "meta_mean_anomaly": 169.0068,
        "meta_ephemeris_type": 0,
        "meta_classification_type": "U",
        "meta_norad_cat_id": 30393,
        "meta_element_set_no": 999,
        "meta_rev_at_epoch": 96531,
        "meta_bstar": 6.4811114e-05,
        "meta_mean_motion_dot": 5e-07,
        "meta_mean_motion_ddot": 0,
        "tle_line1": "1 30393U 99025ADG 25361.12136725  .00000050  00000+0  64811-4 0  9995",
        "tle_line2": "2 30393  99.1635  58.9064 0070267 220.3220 169.0068 13.98993483965319"
      },
      "geometry": {
        "type": "Point",
        "coordinates": [
          -122.24659300565536,
          -10.755844617779921
        ]
      }
    },
    {
      "type": "Feature",
      "properties": {
        "norad_id": 30394,
        "name": "FENGYUN 1C DEB",
        "group": "fengyun-1c-debris",
        "lat": -12.090759262438507,
        "lon": 32.383161662578566,
        "alt_km": 893.3855906183517,
        "timestamp": "2025-12-27T17:24:57.681463+00:00",
        "meta_object_name": "FENGYUN 1C DEB",
        "meta_object_id": "1999-025ADH",
        "meta_epoch": "2025-12-27T00:33:39.505824",
        "meta_mean_motion": 13.9579715,
        "meta_eccentricity": 0.00897667,
        "meta_inclination": 99.4334,
        "meta_ra_of_asc_node": 29.6235,
        "meta_arg_of_pericenter": 63.1,
        "meta_mean_anomaly": 358.7055,
        "meta_ephemeris_type": 0,
        "meta_classification_type": "U",
        "meta_norad_cat_id": 30394,
        "meta_element_set_no": 999,
        "meta_rev_at_epoch": 96303,
        "meta_bstar": 0.00045522272,
        "meta_mean_motion_dot": 5.97e-06,
        "meta_mean_motion_ddot": 0,
        "tle_line1": "1 30394U 99025ADH 25361.02337391  .00000597  00000+0  45522-3 0  9990",
        "tle_line2": "2 30394  99.4334  29.6235 0089766  63.1000 358.7055 13.95797150963037"
      },
      "geometry": {
        "type": "Point",
        "coordinates": [
          32.383161662578566,
          -12.090759262438507
        ]
      }
    },
    {
      "type": "Feature",
      "properties": {
        "norad_id": 30395,
        "name": "FENGYUN 1C DEB",
        "group": "fengyun-1c-debris",
        "lat": -7.03900813188751,
        "lon": -164.25786750809303,
        "alt_km": 1016.5089446285292,
        "timestamp": "2025-12-27T17:24:57.681473+00:00",
        "meta_object_name": "FENGYUN 1C DEB",
        "meta_object_id": "1999-025ADJ",
        "meta_epoch": "2025-12-26T12:02:19.650912",
        "meta_mean_motion": 13.96711185,
        "meta_eccentricity": 0.0159737,
        "meta_inclination": 98.9303,
        "meta_ra_of_asc_node": 15.6659,
        "meta_arg_of_pericenter": 348.3018,
        "meta_mean_anomaly": 168.0449,
        "meta_ephemeris_type": 0,
        "meta_classification_type": "U",
        "meta_norad_cat_id": 30395,
        "meta_element_set_no": 999,
        "meta_rev_at_epoch": 96215,
        "meta_bstar": 0.00058901,
        "meta_mean_motion_dot": 8.66e-06,
        "meta_mean_motion_ddot": 0,
        "tle_line1": "1 30395U 99025ADJ 25360.50161633  .00000866  00000+0  58901-3 0  9991",
        "tle_line2": "2 30395  98.9303  15.6659 0159737 348.3018 168.0449 13.96711185962152"
      },
      "geometry": {
        "type": "Point",
        "coordinates": [
          -164.25786750809303,
          -7.03900813188751
        ]
      }
    }
  ]
}